[
  {
    "OBJECT_NAME": "STARLINK-5382",
    "OBJECT_ID": "22177A",
    "EPOCH": "2025-11-11T07:15:41.557248",
    "MEAN_MOTION": 15.02535908,
    "ECCENTRICITY": 0.0001207,
    "INCLINATION": 43.0047,
    "RA_OF_ASC_NODE": 56.8852,
    "ARG_OF_PERICENTER": 271.4936,
    "MEAN_ANOMALY": 88.5768,
    "EPHEMERIS_TYPE": 0,
    "CLASSIFICATION_TYPE": "U",
    "NORAD_CAT_ID": 54820,
    "ELEMENT_SET_NO": 999,
    "REV_AT_EPOCH": 15914,
    "BSTAR": 5.6788000000000006e-05,
    "MEAN_MOTION_DOT": 5.64e-06,
    "MEAN_MOTION_DDOT": 0.0,
    "TLE_LINE1": "1 54820U 22177A   25315.30256432  .00000564  00000+0  56788-4 0  9991",
    "TLE_LINE2": "2 54820  43.0047  56.8852 0001207 271.4936  88.5768 15.02535908159145",
    "COMMENT": "Grouped by shell and plane from TLE"
  },
  {
    "OBJECT_NAME": "STARLINK-5385",
    "OBJECT_ID": "22177B",
    "EPOCH": "2025-11-11T06:58:06.818016",
    "MEAN_MOTION": 15.0253642,
    "ECCENTRICITY": 0.0001327,
    "INCLINATION": 43.0044,
    "RA_OF_ASC_NODE": 56.7996,
    "ARG_OF_PERICENTER": 272.9692,
    "MEAN_ANOMALY": 87.0999,
    "EPHEMERIS_TYPE": 0,
    "CLASSIFICATION_TYPE": "U",
    "NORAD_CAT_ID": 54821,
    "ELEMENT_SET_NO": 999,
    "REV_AT_EPOCH": 15914,
    "BSTAR": 4.7639e-05,
    "MEAN_MOTION_DOT": 4.4e-06,
    "MEAN_MOTION_DDOT": 0.0,
    "TLE_LINE1": "1 54821U 22177B   25315.29035669  .00000440  00000+0  47639-4 0  9995",
    "TLE_LINE2": "2 54821  43.0044  56.7996 0001327 272.9692  87.0999 15.02536420159149",
    "COMMENT": "Grouped by shell and plane from TLE"
  },
  {
    "OBJECT_NAME": "STARLINK-5101",
    "OBJECT_ID": "22177C",
    "EPOCH": "2025-11-11T06:51:42.997248",
    "MEAN_MOTION": 15.02536842,
    "ECCENTRICITY": 0.0001138,
    "INCLINATION": 43.0043,
    "RA_OF_ASC_NODE": 56.7629,
    "ARG_OF_PERICENTER": 267.3579,
    "MEAN_ANOMALY": 92.7133,
    "EPHEMERIS_TYPE": 0,
    "CLASSIFICATION_TYPE": "U",
    "NORAD_CAT_ID": 54822,
    "ELEMENT_SET_NO": 999,
    "REV_AT_EPOCH": 15914,
    "BSTAR": 7.8243e-05,
    "MEAN_MOTION_DOT": 8.53e-06,
    "MEAN_MOTION_DDOT": 0.0,
    "TLE_LINE1": "1 54822U 22177C   25315.28591432  .00000853  00000+0  78243-4 0  9993",
    "TLE_LINE2": "2 54822  43.0043  56.7629 0001138 267.3579  92.7133 15.02536842159145",
    "COMMENT": "Grouped by shell and plane from TLE"
  },
  {
    "OBJECT_NAME": "STARLINK-5106",
    "OBJECT_ID": "22177D",
    "EPOCH": "2025-11-11T07:10:54.638400",
    "MEAN_MOTION": 15.02527892,
    "ECCENTRICITY": 0.0001866,
    "INCLINATION": 43.0051,
    "RA_OF_ASC_NODE": 56.8618,
    "ARG_OF_PERICENTER": 267.1362,
    "MEAN_ANOMALY": 92.9267,
    "EPHEMERIS_TYPE": 0,
    "CLASSIFICATION_TYPE": "U",
    "NORAD_CAT_ID": 54823,
    "ELEMENT_SET_NO": 999,
    "REV_AT_EPOCH": 15914,
    "BSTAR": 0.0,
    "MEAN_MOTION_DOT": -5.22e-06,
    "MEAN_MOTION_DDOT": 0.0,
    "TLE_LINE1": "1 54823U 22177D   25315.29924350 -.00000522  00000+0 -23549-4 0  9998",
    "TLE_LINE2": "2 54823  43.0051  56.8618 0001866 267.1362  92.9267 15.02527892159145",
    "COMMENT": "Grouped by shell and plane from TLE"
  },
  {
    "OBJECT_NAME": "STARLINK-4643",
    "OBJECT_ID": "22177E",
    "EPOCH": "2025-11-11T07:06:06.056352",
    "MEAN_MOTION": 15.02538512,
    "ECCENTRICITY": 0.0001161,
    "INCLINATION": 43.0042,
    "RA_OF_ASC_NODE": 56.838,
    "ARG_OF_PERICENTER": 269.5275,
    "MEAN_ANOMALY": 90.5434,
    "EPHEMERIS_TYPE": 0,
    "CLASSIFICATION_TYPE": "U",
    "NORAD_CAT_ID": 54824,
    "ELEMENT_SET_NO": 999,
    "REV_AT_EPOCH": 15914,
    "BSTAR": 2.9475e-05,
    "MEAN_MOTION_DOT": 1.95e-06,
    "MEAN_MOTION_DDOT": 0.0,
    "TLE_LINE1": "1 54824U 22177E   25315.29590343  .00000195  00000+0  29475-4 0  9998",
    "TLE_LINE2": "2 54824  43.0042  56.8380 0001161 269.5275  90.5434 15.02538512159140",
    "COMMENT": "Grouped by shell and plane from TLE"
  },
  {
    "OBJECT_NAME": "STARLINK-5107",
    "OBJECT_ID": "22177G",
    "EPOCH": "2025-11-11T06:53:19.907808",
    "MEAN_MOTION": 15.02546389,
    "ECCENTRICITY": 0.000155,
    "INCLINATION": 43.0055,
    "RA_OF_ASC_NODE": 56.7734,
    "ARG_OF_PERICENTER": 262.4117,
    "MEAN_ANOMALY": 97.6549,
    "EPHEMERIS_TYPE": 0,
    "CLASSIFICATION_TYPE": "U",
    "NORAD_CAT_ID": 54826,
    "ELEMENT_SET_NO": 999,
    "REV_AT_EPOCH": 15914,
    "BSTAR": 0.00017986,
    "MEAN_MOTION_DOT": 2.227e-05,
    "MEAN_MOTION_DDOT": 0.0,
    "TLE_LINE1": "1 54826U 22177G   25315.28703597  .00002227  00000+0  17986-3 0  9997",
    "TLE_LINE2": "2 54826  43.0055  56.7734 0001550 262.4117  97.6549 15.02546389159143",
    "COMMENT": "Grouped by shell and plane from TLE"
  },
  {
    "OBJECT_NAME": "STARLINK-5383",
    "OBJECT_ID": "22177H",
    "EPOCH": "2025-11-11T00:19:13.094400",
    "MEAN_MOTION": 15.02536144,
    "ECCENTRICITY": 0.0001039,
    "INCLINATION": 43.0034,
    "RA_OF_ASC_NODE": 58.1554,
    "ARG_OF_PERICENTER": 275.4427,
    "MEAN_ANOMALY": 84.6297,
    "EPHEMERIS_TYPE": 0,
    "CLASSIFICATION_TYPE": "U",
    "NORAD_CAT_ID": 54827,
    "ELEMENT_SET_NO": 999,
    "REV_AT_EPOCH": 15911,
    "BSTAR": 1.0984e-05,
    "MEAN_MOTION_DOT": -5.5e-07,
    "MEAN_MOTION_DDOT": 0.0,
    "TLE_LINE1": "1 54827U 22177H   25315.01334600 -.00000055  00000+0  10984-4 0  9994",
    "TLE_LINE2": "2 54827  43.0034  58.1554 0001039 275.4427  84.6297 15.02536144159118",
    "COMMENT": "Grouped by shell and plane from TLE"
  },
  {
    "OBJECT_NAME": "STARLINK-5381",
    "OBJECT_ID": "22177J",
    "EPOCH": "2025-11-11T06:37:20.028864",
    "MEAN_MOTION": 15.02558522,
    "ECCENTRICITY": 0.0001199,
    "INCLINATION": 43.0047,
    "RA_OF_ASC_NODE": 56.6877,
    "ARG_OF_PERICENTER": 272.9163,
    "MEAN_ANOMALY": 87.1542,
    "EPHEMERIS_TYPE": 0,
    "CLASSIFICATION_TYPE": "U",
    "NORAD_CAT_ID": 54828,
    "ELEMENT_SET_NO": 999,
    "REV_AT_EPOCH": 15914,
    "BSTAR": 0.00020572,
    "MEAN_MOTION_DOT": 2.578e-05,
    "MEAN_MOTION_DDOT": 0.0,
    "TLE_LINE1": "1 54828U 22177J   25315.27592626  .00002578  00000+0  20572-3 0  9991",
    "TLE_LINE2": "2 54828  43.0047  56.6877 0001199 272.9163  87.1542 15.02558522159148",
    "COMMENT": "Grouped by shell and plane from TLE"
  },
  {
    "OBJECT_NAME": "STARLINK-5394",
    "OBJECT_ID": "22177L",
    "EPOCH": "2025-11-11T06:29:20.499360",
    "MEAN_MOTION": 15.02535896,
    "ECCENTRICITY": 0.0001312,
    "INCLINATION": 43.0024,
    "RA_OF_ASC_NODE": 56.6414,
    "ARG_OF_PERICENTER": 282.3288,
    "MEAN_ANOMALY": 77.7408,
    "EPHEMERIS_TYPE": 0,
    "CLASSIFICATION_TYPE": "U",
    "NORAD_CAT_ID": 54830,
    "ELEMENT_SET_NO": 999,
    "REV_AT_EPOCH": 15914,
    "BSTAR": 9.2225e-05,
    "MEAN_MOTION_DOT": 1.042e-05,
    "MEAN_MOTION_DDOT": 0.0,
    "TLE_LINE1": "1 54830U 22177L   25315.27037615  .00001042  00000+0  92225-4 0  9996",
    "TLE_LINE2": "2 54830  43.0024  56.6414 0001312 282.3288  77.7408 15.02535896159148",
    "COMMENT": "Grouped by shell and plane from TLE"
  },
  {
    "OBJECT_NAME": "STARLINK-5395",
    "OBJECT_ID": "22177M",
    "EPOCH": "2025-11-11T06:56:31.058304",
    "MEAN_MOTION": 15.0254607,
    "ECCENTRICITY": 9.88e-05,
    "INCLINATION": 43.0048,
    "RA_OF_ASC_NODE": 56.777,
    "ARG_OF_PERICENTER": 280.3422,
    "MEAN_ANOMALY": 79.7309,
    "EPHEMERIS_TYPE": 0,
    "CLASSIFICATION_TYPE": "U",
    "NORAD_CAT_ID": 54831,
    "ELEMENT_SET_NO": 999,
    "REV_AT_EPOCH": 15914,
    "BSTAR": 0.00013044,
    "MEAN_MOTION_DOT": 1.559e-05,
    "MEAN_MOTION_DDOT": 0.0,
    "TLE_LINE1": "1 54831U 22177M   25315.28924836  .00001559  00000+0  13044-3 0  9992",
    "TLE_LINE2": "2 54831  43.0048  56.7770 0000988 280.3422  79.7309 15.02546070159145",
    "COMMENT": "Grouped by shell and plane from TLE"
  },
  {
    "OBJECT_NAME": "STARLINK-5391",
    "OBJECT_ID": "22177P",
    "EPOCH": "2025-11-11T06:38:55.817952",
    "MEAN_MOTION": 15.02534929,
    "ECCENTRICITY": 0.0001194,
    "INCLINATION": 43.0042,
    "RA_OF_ASC_NODE": 56.6939,
    "ARG_OF_PERICENTER": 264.3622,
    "MEAN_ANOMALY": 95.7084,
    "EPHEMERIS_TYPE": 0,
    "CLASSIFICATION_TYPE": "U",
    "NORAD_CAT_ID": 54833,
    "ELEMENT_SET_NO": 999,
    "REV_AT_EPOCH": 15914,
    "BSTAR": 6.1981e-05,
    "MEAN_MOTION_DOT": 6.34e-06,
    "MEAN_MOTION_DDOT": 0.0,
    "TLE_LINE1": "1 54833U 22177P   25315.27703493  .00000634  00000+0  61981-4 0  9994",
    "TLE_LINE2": "2 54833  43.0042  56.6939 0001194 264.3622  95.7084 15.02534929159149",
    "COMMENT": "Grouped by shell and plane from TLE"
  },
  {
    "OBJECT_NAME": "STARLINK-5386",
    "OBJECT_ID": "22177Q",
    "EPOCH": "2025-11-11T06:27:44.398368",
    "MEAN_MOTION": 15.02522391,
    "ECCENTRICITY": 0.0001068,
    "INCLINATION": 43.0038,
    "RA_OF_ASC_NODE": 56.633,
    "ARG_OF_PERICENTER": 266.7305,
    "MEAN_ANOMALY": 93.3415,
    "EPHEMERIS_TYPE": 0,
    "CLASSIFICATION_TYPE": "U",
    "NORAD_CAT_ID": 54834,
    "ELEMENT_SET_NO": 999,
    "REV_AT_EPOCH": 15915,
    "BSTAR": 0.0003751,
    "MEAN_MOTION_DOT": 4.865e-05,
    "MEAN_MOTION_DDOT": 0.0,
    "TLE_LINE1": "1 54834U 22177Q   25315.26926387  .00004865  00000+0  37510-3 0  9993",
    "TLE_LINE2": "2 54834  43.0038  56.6330 0001068 266.7305  93.3415 15.02522391159157",
    "COMMENT": "Grouped by shell and plane from TLE"
  },
  {
    "OBJECT_NAME": "STARLINK-5389",
    "OBJECT_ID": "22177R",
    "EPOCH": "2025-11-11T06:34:08.287392",
    "MEAN_MOTION": 15.02536995,
    "ECCENTRICITY": 0.0001185,
    "INCLINATION": 43.0046,
    "RA_OF_ASC_NODE": 56.6713,
    "ARG_OF_PERICENTER": 264.1452,
    "MEAN_ANOMALY": 95.9255,
    "EPHEMERIS_TYPE": 0,
    "CLASSIFICATION_TYPE": "U",
    "NORAD_CAT_ID": 54835,
    "ELEMENT_SET_NO": 999,
    "REV_AT_EPOCH": 15914,
    "BSTAR": 5.4557e-05,
    "MEAN_MOTION_DOT": 5.33e-06,
    "MEAN_MOTION_DDOT": 0.0,
    "TLE_LINE1": "1 54835U 22177R   25315.27370703  .00000533  00000+0  54557-4 0  9999",
    "TLE_LINE2": "2 54835  43.0046  56.6713 0001185 264.1452  95.9255 15.02536995159141",
    "COMMENT": "Grouped by shell and plane from TLE"
  }
]